NORAD_CAT_ID,OBJECT_NAME,OBJECT_TYPE,EPOCH,MEAN_MOTION,ECCENTRICITY,INCLINATION,RA_OF_ASC_NODE,ARG_OF_PERICENTER,MEAN_ANOMALY,BSTAR,MEAN_MOTION_DOT,MEAN_MOTION_DDOT,TLE_LINE0,TLE_LINE1,TLE_LINE2,SEMIMAJOR_AXIS,PERIOD,APOGEE,PERIGEE,DECAYED
52301.0,STARLINK-3768,PAYLOAD,2022-05-24 04:00:00,15.73179051,0.0003593,53.2151,214.0448,8.1567,33.599000000000004,0.0001703,0.00023329,0.0,0 STARLINK-3768,1 52301U 22041AS  22144.16667824  .00023329  00000-0  17030-3 0  9996,2 52301  53.2151 214.0448 0003593   8.1567  33.5990 15.73179051  6330,6727.955,91.534,352.237,347.403,0.0
52301.0,STARLINK-3768,PAYLOAD,2022-05-24 14:00:01,15.73161055,0.0003914,53.2154,211.9854,4.4109,238.4855,0.00022437,0.0003094,0.0,0 STARLINK-3768,1 52301U 22041AS  22144.58334491  .00030940  00000-0  22437-3 0  9997,2 52301  53.2154 211.9854 0003914   4.4109 238.4855 15.73161055  1301,6728.005999999999,91.535,352.505,347.23800000000006,0.0
52301.0,STARLINK-3768,PAYLOAD,2022-05-24 22:00:00,15.73156929,0.0003791,53.2156,210.3342,3.0685,328.7359,0.00011912,0.00016101,0.0,0 STARLINK-3768,1 52301U 22041AS  22144.91667824  .00016101  00000-0  11912-3 0  9992,2 52301  53.2156 210.3342 0003791   3.0685 328.7359 15.73156929  6452,6728.018,91.536,352.434,347.332,0.0
52301.0,STARLINK-3768,PAYLOAD,2022-05-25 06:00:00,15.72954362,0.000387,53.2171,208.68400000000003,11.5566,49.1325,0.0028127,0.00409708,0.0,0 STARLINK-3768,1 52301U 22041AS  22145.25001157  .00409708  00000-0  28127-2 0  9995,2 52301  53.2171 208.6840 0003870  11.5566  49.1325 15.72954362  6501,6728.596,91.547,353.065,347.857,0.0
52301.0,STARLINK-3768,PAYLOAD,2022-05-25 12:00:00,15.73232781,0.0004049,53.2156,207.449,3.6398,33.8308,-0.00039752,-0.0005615,0.0,0 STARLINK-3768,1 52301U 22041AS  22145.50001157 -.00056150  00000-0 -39752-3 0  9991,2 52301  53.2156 207.4490 0004049   3.6398  33.8308 15.73232781  6546,6727.802,91.531,352.391,346.9430000000001,0.0
52301.0,STARLINK-3768,PAYLOAD,2022-05-25 14:00:01,15.73191467,0.0004119,53.2155,207.0368,2.6689,147.0512,0.00015709,0.0002148,0.0,0 STARLINK-3768,1 52301U 22041AS  22145.58334491  .00021480  00000-0  15709-3 0  9991,2 52301  53.2155 207.0368 0004119   2.6689 147.0512 15.73191467  1304,6727.92,91.534,352.556,347.01300000000015,0.0
52301.0,STARLINK-3768,PAYLOAD,2022-05-25 22:00:00,15.73250476,0.0003902,53.2152,205.3855,1.3231,237.3402,-0.00031376,-0.00044542,0.0,0 STARLINK-3768,1 52301U 22041AS  22145.91667824 -.00044542  00000-0 -31376-3 0  9991,2 52301  53.2152 205.3855 0003902   1.3231 237.3402 15.73250476  6617,6727.751,91.53,352.241,346.991,0.0
52301.0,STARLINK-3768,PAYLOAD,2022-05-26 12:14:11,15.73216767,0.0004,53.216,202.4493,7.1981,352.9096,1.9194e-05,2.073e-05,0.0,0 STARLINK-3768,1 52301U 22041AS  22146.50985574  .00002073  00000-0  19194-4 0  9998,2 52301  53.2160 202.4493 0004000   7.1981 352.9096 15.73216767  5491,6727.847,91.532,352.404,347.021,0.0
52301.0,STARLINK-3768,PAYLOAD,2022-05-26 22:00:00,15.73131118,0.0004061,53.2156,200.4371,0.597,144.8473,0.00045592,0.00063684,0.0,0 STARLINK-3768,1 52301U 22041AS  22146.91667824  .00063684  00000-0  45592-3 0  9993,2 52301  53.2156 200.4371 0004061   0.5970 144.8473 15.73131118  1300,6728.092,91.537,352.689,347.224,0.0
52301.0,STARLINK-3768,PAYLOAD,2022-05-27 02:00:01,15.73128169,0.0004014,53.2155,199.6117,2.4269,7.4372,0.00063142,0.0008868999999999,0.0,0 STARLINK-3768,1 52301U 22041AS  22147.08334491  .00088690  00000-0  63142-3 0  9998,2 52301  53.2155 199.6117 0004014   2.4269   7.4372 15.73128169  6798,6728.1,91.537,352.666,347.264,0.0
52301.0,STARLINK-3768,PAYLOAD,2022-05-27 14:00:01,15.73192148,0.0004309,53.2152,197.1402,2.3065,320.9004,-0.00013564,-0.00019621,0.0,0 STARLINK-3768,1 52301U 22041AS  22147.58334491 -.00019621  00000-0 -13564-3 0  9996,2 52301  53.2152 197.1402 0004309   2.3065 320.9004 15.73192148  6877,6727.918000000002,91.534,352.682,346.884,0.0
52301.0,STARLINK-3768,PAYLOAD,2022-05-27 22:00:01,15.73158371,0.0003998,53.2149,195.4886,1.2487,50.9555,0.00049217,0.0006892,0.0,0 STARLINK-3768,1 52301U 22041AS  22147.91668981  .00068920  00000-0  49217-3 0  9995,2 52301  53.2149 195.4886 0003998   1.2487  50.9555 15.73158371  1303,6728.014,91.536,352.569,347.189,0.0
52301.0,STARLINK-3768,PAYLOAD,2022-05-28 03:52:42,15.73192802,0.0004194,53.2159,194.2758,4.8226,355.2834,1.4246e-05,1.375e-05,0.0,0 STARLINK-3768,1 52301U 22041AS  22148.16160846  .00001375  00000-0  14246-4 0  9996,2 52301  53.2159 194.2758 0004194   4.8226 355.2834 15.73192802  6963,6727.916,91.534,352.602,346.959,0.0
52301.0,STARLINK-3768,PAYLOAD,2022-05-28 14:00:01,15.73260977,0.000424,53.2148,192.1917,1.665,228.3697,0.00026788,0.00037253,0.0,0 STARLINK-3768,1 52301U 22041AS  22148.58334491  .00037253  00000-0  26788-3 0  9998,2 52301  53.2148 192.1917 0004240   1.6650 228.3697 15.73260977  7038,6727.721,91.53,352.439,346.7340000000001,0.0
52301.0,STARLINK-3768,PAYLOAD,2022-05-28 22:00:00,15.732581699999995,0.0003976,53.2151,190.5399,1.4839,317.5865,-8.564299999999999e-05,-0.00012662,0.0,0 STARLINK-3768,1 52301U 22041AS  22148.91667824 -.00012662  00000-0 -85643-4 0  9999,2 52301  53.2151 190.5399 0003976   1.4839 317.5865 15.73258170  1304,6727.729,91.53,352.269,346.9190000000001,0.0
52301.0,STARLINK-3768,PAYLOAD,2022-05-29 04:00:00,15.73255096,0.000395,53.2152,189.3026,3.3083,292.4975,-0.00021637,-0.00030965,0.0,0 STARLINK-3768,1 52301U 22041AS  22149.16667824 -.00030965  00000-0 -21637-3 0  9995,2 52301  53.2152 189.3026 0003950   3.3083 292.4975 15.73255096  7125,6727.738,91.53,352.261,346.946,0.0
52301.0,STARLINK-3768,PAYLOAD,2022-05-29 14:00:01,15.73164844,0.0004258,53.2145,187.2426,1.8894,135.0891,3.2423000000000004e-05,3.923e-05,0.0,0 STARLINK-3768,1 52301U 22041AS  22149.58334491  .00003923  00000-0  32423-4 0  9990,2 52301  53.2145 187.2426 0004258   1.8894 135.0891 15.73164844  7188,6727.995,91.535,352.725,346.996,0.0
52301.0,STARLINK-3768,PAYLOAD,2022-05-29 19:31:10,15.73207853,0.0004186,53.2151,186.1025,7.8456,352.2628,-4.3239e-05,-6.694e-05,0.0,0 STARLINK-3768,1 52301U 22041AS  22149.81331235 -.00006694  00000-0 -43239-4 0  9996,2 52301  53.2151 186.1025 0004186   7.8456 352.2628 15.73207853  6018,6727.873000000001,91.533,352.55400000000014,346.921,0.0
52301.0,STARLINK-3768,PAYLOAD,2022-05-30 06:00:00,15.73107086,0.0004023,53.2145,183.9426,357.8968,316.8335,0.00086394,0.00121953,0.0,0 STARLINK-3768,1 52301U 22041AS  22150.25001157  .00121953  00000-0  86394-3 0  9995,2 52301  53.2145 183.9426 0004023 357.8968 316.8335 15.73107086  7296,6728.16,91.539,352.732,347.3180000000001,0.0
52301.0,STARLINK-3768,PAYLOAD,2022-05-30 10:46:00,15.7314616,0.0004237,53.215,182.9592,3.3727,356.7321,-0.00014417,-0.00020772,0.0,0 STARLINK-3768,1 52301U 22041AS  22150.44862164 -.00020772  00000-0 -14417-3 0  9995,2 52301  53.2150 182.9592 0004237   3.3727 356.7321 15.73146160  7326,6728.049,91.536,352.764,347.06300000000016,0.0
52301.0,STARLINK-3768,PAYLOAD,2022-05-30 14:00:01,15.73221272,0.0004202,53.2141,182.2945,355.352,48.2223,0.00033158,0.0004623,0.0,0 STARLINK-3768,1 52301U 22041AS  22150.58334491  .00046230  00000-0  33158-3 0  9995,2 52301  53.2141 182.2945 0004202 355.3520  48.2223 15.73221272  1308,6727.835,91.532,352.527,346.872,0.0
52301.0,STARLINK-3768,PAYLOAD,2022-05-30 22:00:00,15.73150749,0.0004071,53.2145,180.6428,353.6582,138.8221,0.0003067,0.00042564,0.0,0 STARLINK-3768,1 52301U 22041AS  22150.91667824  .00042564  00000-0  30670-3 0  9993,2 52301  53.2145 180.6428 0004071 353.6582 138.8221 15.73150749  7392,6728.036,91.536,352.64,347.162,0.0
52301.0,STARLINK-3768,PAYLOAD,2022-05-31 04:00:00,15.73209445,0.0004085,53.2148,179.40599999999995,356.5946,112.5307,-0.00071095,-0.00099328,0.0,0 STARLINK-3768,1 52301U 22041AS  22151.16667824 -.00099328  00000-0 -71095-3 0  9999,2 52301  53.2148 179.4060 0004085 356.5946 112.5307 15.73209445  7431,6727.868,91.533,352.482,346.985,0.0
52301.0,STARLINK-3768,PAYLOAD,2022-05-31 06:00:02,15.73188514,0.0004175,53.2147,178.9942,357.3714,224.0521,-0.00060495,-0.00084683,0.0,0 STARLINK-3768,1 52301U 22041AS  22151.25002315 -.00084683  00000-0 -60495-3 0  9997,2 52301  53.2147 178.9942 0004175 357.3714 224.0521 15.73188514  1305,6727.928000000001,91.534,352.602,346.9840000000001,0.0
52301.0,STARLINK-3768,PAYLOAD,2022-05-31 12:41:12,15.731515,0.0004154,53.215,177.6146,0.8024,359.3002,-3.967300000000001e-05,-6.18e-05,0.0,0 STARLINK-3768,1 52301U 22041AS  22151.52861828 -.00006180  00000-0 -39673-4 0  9990,2 52301  53.2150 177.6146 0004154   0.8024 359.3002 15.73151500  7499,6728.033,91.536,352.6930000000001,347.10400000000016,0.0
52301.0,STARLINK-3768,PAYLOAD,2022-05-31 22:00:00,15.73204555,0.0003986,53.2142,175.6943,356.9183,42.2132,0.00061173,0.00086161,0.0,0 STARLINK-3768,1 52301U 22041AS  22151.91667824  .00086161  00000-0  61173-3 0  9997,2 52301  53.2142 175.6943 0003986 356.9183  42.2132 15.73204555  7554,6727.882,91.533,352.42900000000014,347.065,0.0
52301.0,STARLINK-3768,PAYLOAD,2022-06-01 11:33:23,15.7323122,0.0003921,53.2146,172.8987,3.1265,356.9779,0.00014321,0.00019556,0.0,0 STARLINK-3768,1 52301U 22041AS  22152.48152251  .00019556  00000-0  14321-3 0  9990,2 52301  53.2146 172.8987 0003921   3.1265 356.9779 15.73231220  7647,6727.806,91.531,352.309,347.033,0.0
52301.0,STARLINK-3768,PAYLOAD,2022-06-01 20:00:01,15.73267285,0.0004001,53.2147,171.1579,357.4663,196.4299,-0.00035184,-0.00049878,0.0,0 STARLINK-3768,1 52301U 22041AS  22152.83334491 -.00049878  00000-0 -35184-3 0  9999,2 52301  53.2147 171.1579 0004001 357.4663 196.4299 15.73267285  1305,6727.703,91.529,352.26,346.87699999999984,0.0
52301.0,STARLINK-3768,PAYLOAD,2022-06-02 18:02:58,15.73206117,0.0004207,53.2148,166.6115,359.2804,0.8209,-3.0862e-05,-4.957e-05,0.0,0 STARLINK-3768,1 52301U 22041AS  22153.75206850 -.00004957  00000-0 -30862-4 0  9996,2 52301  53.2148 166.6115 0004207 359.2804   0.8209 15.73206117  6633,6727.878000000002,91.533,352.5730000000001,346.912,0.0
